NORAD_CAT_ID,OBJECT_NAME,OBJECT_TYPE,EPOCH,MEAN_MOTION,ECCENTRICITY,INCLINATION,RA_OF_ASC_NODE,ARG_OF_PERICENTER,MEAN_ANOMALY,BSTAR,MEAN_MOTION_DOT,MEAN_MOTION_DDOT,TLE_LINE0,TLE_LINE1,TLE_LINE2,SEMIMAJOR_AXIS,PERIOD,APOGEE,PERIGEE,DECAYED
54773.0,STARLINK-5453,PAYLOAD,2023-11-23 19:57:32,15.08831958,0.0001374,53.2161,200.7977,104.1688,255.9457,2.3083e-05,7.9e-07,0.0,0 STARLINK-5453,1 54773U 22175R   23327.83163022  .00000079  00000-0  23083-4 0  9991,2 54773  53.2161 200.7977 0001374 104.1688 255.9457 15.08831958 51428,6917.905,95.438,540.72,538.819,0.0
54773.0,STARLINK-5453,PAYLOAD,2023-11-23 21:32:55,15.08833781,0.0001535,53.2156,200.4994,101.5829,258.5336,-4.014e-06,-3.52e-06,0.0,0 STARLINK-5453,1 54773U 22175R   23327.89786967 -.00000352  00000-0 -40140-5 0  9996,2 54773  53.2156 200.4994 0001535 101.5829 258.5336 15.08833781 53596,6917.899,95.438,540.826,538.703,0.0
54773.0,STARLINK-5453,PAYLOAD,2023-11-23 23:08:19,15.08833189,0.0001391,53.2151,200.2023,99.1999,260.915,-1.5287e-05,-5.31e-06,0.0,0 STARLINK-5453,1 54773U 22175R   23327.96411016 -.00000531  00000-0 -15287-4 0  9996,2 54773  53.2151 200.2023 0001391  99.1999 260.9150 15.08833189 53607,6917.901,95.438,540.728,538.804,0.0
54773.0,STARLINK-5453,PAYLOAD,2023-11-24 21:23:43,15.08843692,0.0001379,53.2149,196.0405,90.9861,269.1289,7.7342e-05,9.43e-06,0.0,0 STARLINK-5453,1 54773U 22175R   23328.89147001  .00000943  00000-0  77342-4 0  9994,2 54773  53.2149 196.0405 0001379  90.9861 269.1289 15.08843692 53742,6917.869,95.437,540.688,538.78,0.0
54773.0,STARLINK-5453,PAYLOAD,2023-11-25 00:34:29,15.08846224,0.00014,53.2146,195.4449,108.693,251.4214,0.00025024,3.698e-05,0.0,0 STARLINK-5453,1 54773U 22175R   23329.02394866  .00003698  00000-0  25024-3 0  9992,2 54773  53.2146 195.4449 0001400 108.6930 251.4214 15.08846224 51608,6917.861,95.437,540.695,538.758,0.0
54773.0,STARLINK-5453,PAYLOAD,2023-11-25 21:14:29,15.08852107,0.0001579,53.2157,191.5765,93.4051,266.7121,0.00041419,6.312e-05,0.0,0 STARLINK-5453,1 54773U 22175R   23329.88506757  .00006312  00000-0  41419-3 0  9992,2 54773  53.2157 191.5765 0001579  93.4051 266.7121 15.08852107 53896,6917.843,95.437,540.801,538.616,0.0
54773.0,STARLINK-5453,PAYLOAD,2023-11-26 19:29:53,15.0884418,0.000135,53.2145,187.415,104.5235,255.5906,7.2763e-05,8.7e-06,0.0,0 STARLINK-5453,1 54773U 22175R   23330.81242883  .00000870  00000-0  72763-4 0  9994,2 54773  53.2145 187.4150 0001350 104.5235 255.5906 15.08844180 51875,6917.868,95.437,540.667,538.799,0.0
54773.0,STARLINK-5453,PAYLOAD,2023-11-26 21:05:16,15.08844573,0.0001334,53.2149,187.1178,104.2622,255.8518,4.7525e-05,4.69e-06,0.0,0 STARLINK-5453,1 54773U 22175R   23330.87866868  .00000469  00000-0  47525-4 0  9997,2 54773  53.2149 187.1178 0001334 104.2622 255.8518 15.08844573 54045,6917.866,95.437,540.654,538.809,0.0
54773.0,STARLINK-5453,PAYLOAD,2023-11-27 17:45:18,15.0883938,0.0001272,53.2148,183.2477,90.61,269.5038,-2.7737e-05,-7.29e-06,0.0,0 STARLINK-5453,1 54773U 22175R   23331.73979222 -.00000729  00000-0 -27737-4 0  9996,2 54773  53.2148 183.2477 0001272  90.6100 269.5038 15.08839380 52017,6917.882,95.438,540.627,538.867,0.0
54773.0,STARLINK-5453,PAYLOAD,2023-11-27 20:56:04,15.08842618,0.0001384,53.215,182.6552,89.5625,270.5525,-3.3426e-05,-8.2e-06,0.0,0 STARLINK-5453,1 54773U 22175R   23331.87227101 -.00000820  00000-0 -33426-4 0  9997,2 54773  53.2150 182.6552 0001384  89.5625 270.5525 15.08842618 54192,6917.872,95.437,540.695,538.78,0.0
54773.0,STARLINK-5453,PAYLOAD,2023-11-28 00:06:50,15.08844143,0.0001455,53.2152,182.0615,92.7319,267.3839,-6.8053e-05,-1.371e-05,0.0,0 STARLINK-5453,1 54773U 22175R   23332.00475014 -.00001371  00000-0 -68053-4 0  9997,2 54773  53.2152 182.0615 0001455  92.7319 267.3839 15.08844143 54213,6917.868,95.437,540.739,538.726,0.0
54773.0,STARLINK-5453,PAYLOAD,2023-11-28 19:11:28,15.08837452,0.0001419,53.2164,178.4927,90.9096,269.2059,0.00011601,1.559e-05,0.0,0 STARLINK-5453,1 54773U 22175R   23332.79963375  .00001559  00000-0  11601-3 0  9997,2 54773  53.2164 178.4927 0001419  90.9096 269.2059 15.08837452 52176,6917.888,95.438,540.735,538.772,0.0
54773.0,STARLINK-5453,PAYLOAD,2023-11-29 20:37:38,15.08841,0.0001399,53.2163,173.7353,88.4188,271.6965,0.00010442,1.374e-05,0.0,0 STARLINK-5453,1 54773U 22175R   23333.85947357  .00001374  00000-0  10442-3 0  9994,2 54773  53.2163 173.7353 0001399  88.4188 271.6965 15.08841000 52332,6917.877,95.437,540.71,538.775,0.0
54773.0,STARLINK-5453,PAYLOAD,2023-11-30 18:53:03,15.08836437,0.0001512,53.2166,169.5743,100.8336,259.2826,5.0384e-05,5.14e-06,0.0,0 STARLINK-5453,1 54773U 22175R   23334.78684067  .00000514  00000-0  50384-4 0  9998,2 54773  53.2166 169.5743 0001512 100.8336 259.2826 15.08836437 52473,6917.891,95.438,540.802,538.71,0.0
54773.0,STARLINK-5453,PAYLOAD,2023-12-01 18:43:49,15.08850378,0.0001407,53.2159,165.106,91.2586,268.8567,7.8516e-05,9.62e-06,0.0,0 STARLINK-5453,1 54773U 22175R   23335.78043138  .00000962  00000-0  78516-4 0  9991,2 54773  53.2159 165.1060 0001407  91.2586 268.8567 15.08850378 52627,6917.849,95.437,540.687,538.74,0.0
54773.0,STARLINK-5453,PAYLOAD,2023-12-01 20:19:13,15.08819697,0.0001693,53.2167,164.8118,81.8345,278.2839,0.00060246,9.308e-05,0.0,0 STARLINK-5453,1 54773U 22175R   23335.84668086  .00009308  00000-0  60246-3 0  9996,2 54773  53.2167 164.8118 0001693  81.8345 278.2839 15.08819697 54797,6917.942,95.439,540.979,538.636,0.0
54773.0,STARLINK-5453,PAYLOAD,2023-12-02 20:09:59,15.08841098,0.0001636,53.2156,160.3545,58.0264,302.0887,0.00015221,2.135e-05,0.0,0 STARLINK-5453,1 54773U 22175R   23336.84027521  .00002135  00000-0  15221-3 0  9994,2 54773  53.2156 160.3545 0001636  58.0264 302.0887 15.08841098 52789,6917.877,95.437,540.874,538.61,0.0
54773.0,STARLINK-5453,PAYLOAD,2023-12-03 12:03:51,15.08843297,0.0001784,53.2151,157.3886,66.9708,293.1472,-1.4984e-05,-5.27e-06,0.0,0 STARLINK-5453,1 54773U 22175R   23337.50267957 -.00000527  00000-0 -14984-4 0  9998,2 54773  53.2151 157.3886 0001784  66.9708 293.1472 15.08843297 55048,6917.87,95.437,540.969,538.501,0.0
54773.0,STARLINK-5453,PAYLOAD,2023-12-03 18:25:24,15.08837391,0.0001409,53.2157,156.1912,78.5502,281.5648,-4.2744e-05,-9.68e-06,0.0,0 STARLINK-5453,1 54773U 22175R   23337.76764289 -.00000968  00000-0 -42744-4 0  9990,2 54773  53.2157 156.1912 0001409  78.5502 281.5648 15.08837391 52924,6917.888,95.438,540.728,538.779,0.0
54773.0,STARLINK-5453,PAYLOAD,2023-12-04 21:26:57,15.08833824,0.0001334,53.2166,151.136,80.5465,279.5678,4.7747e-05,4.72e-06,0.0,0 STARLINK-5453,1 54773U 22175R   23338.89372424  .00000472  00000-0  47747-4 0  9997,2 54773  53.2166 151.1360 0001334  80.5465 279.5678 15.08833824 55250,6917.899,95.438,540.687,538.841,0.0
54773.0,STARLINK-5453,PAYLOAD,2023-12-05 21:17:44,15.0884123,0.0001327,53.2166,146.6755,99.0067,261.1075,0.00014195,1.972e-05,0.0,0 STARLINK-5453,1 54773U 22175R   23339.88731744  .00001972  00000-0  14195-3 0  9997,2 54773  53.2166 146.6755 0001327  99.0067 261.1075 15.08841230 55407,6917.877,95.437,540.66,538.824,0.0
54773.0,STARLINK-5453,PAYLOAD,2023-12-06 11:36:12,15.08840214,0.0001294,53.2153,143.9993,91.1368,268.9772,3.3662e-05,2.48e-06,0.0,0 STARLINK-5453,1 54773U 22175R   23340.48347945  .00000248  00000-0  33662-4 0  9997,2 54773  53.2153 143.9993 0001294  91.1368 268.9772 15.08840214 55496,6917.88,95.438,540.64,538.85,0.0
54773.0,STARLINK-5453,PAYLOAD,2023-12-07 11:26:59,15.08839668,0.0001349,53.2154,139.5389,86.0711,274.0435,1.7478e-05,-1e-07,0.0,0 STARLINK-5453,1 54773U 22175R   23341.47707981 -.00000010  00000-0  17478-4 0  9992,2 54773  53.2154 139.5389 0001349  86.0711 274.0435 15.08839668 55645,6917.881,95.438,540.68,538.813,0.0
54773.0,STARLINK-5453,PAYLOAD,2023-12-09 19:05:29,15.08838294,0.0001404,53.2149,129.1303,93.8421,266.2732,-9.6612e-06,-4.42e-06,0.0,0 STARLINK-5453,1 54773U 22175R   23343.79548331 -.00000442  00000-0 -96612-5 0  9999,2 54773  53.2149 129.1303 0001404  93.8421 266.2732 15.08838294 53832,6917.886,95.438,540.722,538.779,0.0
54773.0,STARLINK-5453,PAYLOAD,2023-12-10 14:10:07,15.08839344,0.0001317,53.2157,125.5622,92.5638,267.5505,8.4494e-06,-1.53e-06,0.0,0 STARLINK-5453,1 54773U 22175R   23344.59036301 -.00000153  00000-0  84494-5 0  9990,2 54773  53.2157 125.5622 0001317  92.5638 267.5505 15.08839344 56117,6917.882,95.438,540.658,538.836,0.0
54773.0,STARLINK-5453,PAYLOAD,2023-12-10 17:20:53,15.08839723,0.0001243,53.2164,124.9681,89.1518,270.9616,1.3187e-05,-7.8e-07,0.0,0 STARLINK-5453,1 54773U 22175R   23344.72284278 -.00000078  00000-0  13187-4 0  9999,2 54773  53.2164 124.9681 0001243  89.1518 270.9616 15.08839723 56134,6917.881,95.438,540.606,538.886,0.0
54773.0,STARLINK-5453,PAYLOAD,2023-12-11 14:00:54,15.08840995,0.0001414,53.2171,121.1064,70.6907,289.4238,6.6521e-05,7.71e-06,0.0,0 STARLINK-5453,1 54773U 22175R   23345.58396235  .00000771  00000-0  66521-4 0  9990,2 54773  53.2171 121.1064 0001414  70.6907 289.4238 15.08840995 56265,6917.877,95.437,540.721,538.764,0.0
54773.0,STARLINK-5453,PAYLOAD,2023-12-11 15:36:17,15.08841733,0.0001438,53.2169,120.8094,69.7962,290.3185,7.0889e-05,8.4e-06,0.0,0 STARLINK-5453,1 54773U 22175R   23345.65020183  .00000840  00000-0  70889-4 0  9993,2 54773  53.2169 120.8094 0001438  69.7962 290.3185 15.08841733 54112,6917.875,95.437,540.735,538.745,0.0
54773.0,STARLINK-5453,PAYLOAD,2023-12-12 13:51:41,15.08840897,0.000131,53.2167,116.6445,75.8349,284.2788,2.8845e-06,-2.42e-06,0.0,0 STARLINK-5453,1 54773U 22175R   23346.57756354 -.00000242  00000-0  28845-5 0  9994,2 54773  53.2167 116.6445 0001310  75.8349 284.2788 15.08840897 56415,6917.878,95.437,540.649,538.836,0.0
54773.0,STARLINK-5453,PAYLOAD,2023-12-13 13:42:28,15.08839501,0.0001383,53.2173,112.1809,96.9586,263.1563,7.464e-06,-1.69e-06,0.0,0 STARLINK-5453,1 54773U 22175R   23347.57116222 -.00000169  00000-0  74640-5 0  9991,2 54773  53.2173 112.1809 0001383  96.9586 263.1563 15.08839501 56567,6917.882,95.438,540.704,538.79,0.0
